DELTA 2 R/B(1)          
1 20453U 90008B   26055.27704001  .00059249  00000+0  74298-3 0  9991
2 20453  35.6034 262.7467 0088233 133.7714 227.0363 15.53959114924046
COSMOS 2058             
1 20465U 90010A   26055.27329116  .00004184  00000+0  24735-3 0  9996
2 20465  82.4674  60.6457 0010316  28.6691 331.5104 15.11186589940219
SL-14 R/B               
1 20466U 90010B   26055.13008504  .00000353  00000+0  39899-4 0  9999
2 20466  82.5001 280.1284 0019516 349.0638  11.0149 14.83555936926479
SL-14 R/B               
1 20511U 90018B   26055.06734207  .00000458  00000+0  54515-4 0  9994
2 20511  82.5182 235.8241 0017349 133.5756 226.6902 14.82127870920565
HST                     
1 20580U 90037B   26055.30445535  .00007577  00000+0  25159-3 0  9991
2 20580  28.4687 131.2938 0001204 340.4847  19.5702 15.29247409771266
SL-16 R/B               
1 20625U 90046B   26055.19507537  .00000031  00000+0  40735-4 0  9995
2 20625  71.0017 326.2545 0015781 318.1647  41.8268 14.15015191846489
COSMOS 2084             
1 20663U 90055A   26055.23938578  .00003082  00000+0  22612-3 0  9997
2 20663  62.7912  21.4475 0019184 186.8840 173.2000 15.05553712934291
SL-6 R/B(2)             
1 20666U 90055D   26055.07072177  .00002104  00000+0  16727-3 0  9990
2 20666  62.7832 300.1629 0022653 343.5222  16.5138 15.03522358936141
SL-8 R/B                
1 20775U 90078B   26055.06681248  .00015018  00000+0  44059-3 0  9997
2 20775  82.9006 263.5590 0365179  59.7005 303.9811 14.88570021807270
SL-8 R/B                
1 21088U 91006B   26054.84502339  .00000060  00000+0  44318-4 0  9995
2 21088  82.9458 180.3377 0023661  75.4238  93.0343 13.77492748762169
OKEAN-3                 
1 21397U 91039A   26055.24641541  .00003501  00000+0  24633-3 0  9998
2 21397  82.5203 349.8640 0014988  23.1970 336.9930 15.04697752863017
COSMOS 2151             
1 21422U 91042A   26055.20891237  .00001546  00000+0  12183-3 0  9990
2 21422  82.4940  96.6828 0014108 103.9207 256.3587 15.00047759861172
