CCSDS_OMM_VERS = 2.0
CREATION_DATE  = 
ORIGINATOR     = 

OBJECT_NAME    = DELTA 2 R/B(1)
OBJECT_ID      = 1990-008B
CENTER_NAME    = EARTH
REF_FRAME      = TEME
TIME_SYSTEM    = UTC
MEAN_ELEMENT_THEORY = SGP/SGP4

EPOCH          = 2026-02-24T06:38:56.256864
MEAN_MOTION    = 15.53959114
ECCENTRICITY   = .00882337
INCLINATION    = 35.6034
RA_OF_ASC_NODE = 262.7467
ARG_OF_PERICENTER = 133.7714
MEAN_ANOMALY   = 227.0363

EPHEMERIS_TYPE = 0
CLASSIFICATION_TYPE = U
NORAD_CAT_ID   = 20453
ELEMENT_SET_NO = 999
REV_AT_EPOCH   = 92404
BSTAR          = .74298473E-3
MEAN_MOTION_DOT = .59249E-3
MEAN_MOTION_DDOT = 0

CCSDS_OMM_VERS = 2.0
CREATION_DATE  = 
ORIGINATOR     = 

OBJECT_NAME    = COSMOS 2058
OBJECT_ID      = 1990-010A
CENTER_NAME    = EARTH
REF_FRAME      = TEME
TIME_SYSTEM    = UTC
MEAN_ELEMENT_THEORY = SGP/SGP4

EPOCH          = 2026-02-24T06:33:32.356224
MEAN_MOTION    = 15.11186589
ECCENTRICITY   = .00103164
INCLINATION    = 82.4674
RA_OF_ASC_NODE = 60.6457
ARG_OF_PERICENTER = 28.6691
MEAN_ANOMALY   = 331.5104

EPHEMERIS_TYPE = 0
CLASSIFICATION_TYPE = U
NORAD_CAT_ID   = 20465
ELEMENT_SET_NO = 999
REV_AT_EPOCH   = 94021
BSTAR          = .24735459E-3
MEAN_MOTION_DOT = .4184E-4
MEAN_MOTION_DDOT = 0

CCSDS_OMM_VERS = 2.0
CREATION_DATE  = 
ORIGINATOR     = 

OBJECT_NAME    = SL-14 R/B
OBJECT_ID      = 1990-010B
CENTER_NAME    = EARTH
REF_FRAME      = TEME
TIME_SYSTEM    = UTC
MEAN_ELEMENT_THEORY = SGP/SGP4

EPOCH          = 2026-02-24T03:07:19.347456
MEAN_MOTION    = 14.83555936
ECCENTRICITY   = .00195162
INCLINATION    = 82.5001
RA_OF_ASC_NODE = 280.1284
ARG_OF_PERICENTER = 349.0638
MEAN_ANOMALY   = 11.0149

EPHEMERIS_TYPE = 0
CLASSIFICATION_TYPE = U
NORAD_CAT_ID   = 20466
ELEMENT_SET_NO = 999
REV_AT_EPOCH   = 92647
BSTAR          = .39899088E-4
MEAN_MOTION_DOT = .353E-5
MEAN_MOTION_DDOT = 0

CCSDS_OMM_VERS = 2.0
CREATION_DATE  = 
ORIGINATOR     = 

OBJECT_NAME    = SL-14 R/B
OBJECT_ID      = 1990-018B
CENTER_NAME    = EARTH
REF_FRAME      = TEME
TIME_SYSTEM    = UTC
MEAN_ELEMENT_THEORY = SGP/SGP4

EPOCH          = 2026-02-24T01:36:58.354848
MEAN_MOTION    = 14.82127870
ECCENTRICITY   = .00173498
INCLINATION    = 82.5182
RA_OF_ASC_NODE = 235.8241
ARG_OF_PERICENTER = 133.5756
MEAN_ANOMALY   = 226.6902

EPHEMERIS_TYPE = 0
CLASSIFICATION_TYPE = U
NORAD_CAT_ID   = 20511
ELEMENT_SET_NO = 999
REV_AT_EPOCH   = 92056
BSTAR          = .54515162E-4
MEAN_MOTION_DOT = .458E-5
MEAN_MOTION_DDOT = 0

CCSDS_OMM_VERS = 2.0
CREATION_DATE  = 
ORIGINATOR     = 

OBJECT_NAME    = HST
OBJECT_ID      = 1990-037B
CENTER_NAME    = EARTH
REF_FRAME      = TEME
TIME_SYSTEM    = UTC
MEAN_ELEMENT_THEORY = SGP/SGP4

EPOCH          = 2026-02-24T07:18:24.942240
MEAN_MOTION    = 15.29247409
ECCENTRICITY   = .0001204
INCLINATION    = 28.4687
RA_OF_ASC_NODE = 131.2938
ARG_OF_PERICENTER = 340.4847
MEAN_ANOMALY   = 19.5702

EPHEMERIS_TYPE = 0
CLASSIFICATION_TYPE = U
NORAD_CAT_ID   = 20580
ELEMENT_SET_NO = 999
REV_AT_EPOCH   = 77126
BSTAR          = .25158995E-3
MEAN_MOTION_DOT = .7577E-4
MEAN_MOTION_DDOT = 0

CCSDS_OMM_VERS = 2.0
CREATION_DATE  = 
ORIGINATOR     = 

OBJECT_NAME    = SL-16 R/B
OBJECT_ID      = 1990-046B
CENTER_NAME    = EARTH
REF_FRAME      = TEME
TIME_SYSTEM    = UTC
MEAN_ELEMENT_THEORY = SGP/SGP4

EPOCH          = 2026-02-24T04:40:54.511968
MEAN_MOTION    = 14.15015191
ECCENTRICITY   = .00157816
INCLINATION    = 71.0017
RA_OF_ASC_NODE = 326.2545
ARG_OF_PERICENTER = 318.1647
MEAN_ANOMALY   = 41.8268

EPHEMERIS_TYPE = 0
CLASSIFICATION_TYPE = U
NORAD_CAT_ID   = 20625
ELEMENT_SET_NO = 999
REV_AT_EPOCH   = 84648
BSTAR          = .40735035E-4
MEAN_MOTION_DOT = .31E-6
MEAN_MOTION_DDOT = 0

CCSDS_OMM_VERS = 2.0
CREATION_DATE  = 
ORIGINATOR     = 

OBJECT_NAME    = COSMOS 2084
OBJECT_ID      = 1990-055A
CENTER_NAME    = EARTH
REF_FRAME      = TEME
TIME_SYSTEM    = UTC
MEAN_ELEMENT_THEORY = SGP/SGP4

EPOCH          = 2026-02-24T05:44:42.931392
MEAN_MOTION    = 15.05553712
ECCENTRICITY   = .00191843
INCLINATION    = 62.7912
RA_OF_ASC_NODE = 21.4475
ARG_OF_PERICENTER = 186.8840
MEAN_ANOMALY   = 173.2000

EPHEMERIS_TYPE = 0
CLASSIFICATION_TYPE = U
NORAD_CAT_ID   = 20663
ELEMENT_SET_NO = 999
REV_AT_EPOCH   = 93429
BSTAR          = .22612149E-3
MEAN_MOTION_DOT = .3082E-4
MEAN_MOTION_DDOT = 0

CCSDS_OMM_VERS = 2.0
CREATION_DATE  = 
ORIGINATOR     = 

OBJECT_NAME    = SL-6 R/B(2)
OBJECT_ID      = 1990-055D
CENTER_NAME    = EARTH
REF_FRAME      = TEME
TIME_SYSTEM    = UTC
MEAN_ELEMENT_THEORY = SGP/SGP4

EPOCH          = 2026-02-24T01:41:50.360928
MEAN_MOTION    = 15.03522358
ECCENTRICITY   = .00226533
INCLINATION    = 62.7832
RA_OF_ASC_NODE = 300.1629
ARG_OF_PERICENTER = 343.5222
MEAN_ANOMALY   = 16.5138

EPHEMERIS_TYPE = 0
CLASSIFICATION_TYPE = U
NORAD_CAT_ID   = 20666
ELEMENT_SET_NO = 999
REV_AT_EPOCH   = 93614
BSTAR          = .1672736E-3
MEAN_MOTION_DOT = .2104E-4
MEAN_MOTION_DDOT = 0

CCSDS_OMM_VERS = 2.0
CREATION_DATE  = 
ORIGINATOR     = 

OBJECT_NAME    = SL-8 R/B
OBJECT_ID      = 1990-078B
CENTER_NAME    = EARTH
REF_FRAME      = TEME
TIME_SYSTEM    = UTC
MEAN_ELEMENT_THEORY = SGP/SGP4

EPOCH          = 2026-02-24T01:36:12.598272
MEAN_MOTION    = 14.88570021
ECCENTRICITY   = .0365179
INCLINATION    = 82.9006
RA_OF_ASC_NODE = 263.5590
ARG_OF_PERICENTER = 59.7005
MEAN_ANOMALY   = 303.9811

EPHEMERIS_TYPE = 0
CLASSIFICATION_TYPE = U
NORAD_CAT_ID   = 20775
ELEMENT_SET_NO = 999
REV_AT_EPOCH   = 80727
BSTAR          = .44058961E-3
MEAN_MOTION_DOT = .15018E-3
MEAN_MOTION_DDOT = 0

CCSDS_OMM_VERS = 2.0
CREATION_DATE  = 
ORIGINATOR     = 

OBJECT_NAME    = SL-8 R/B
OBJECT_ID      = 1991-006B
CENTER_NAME    = EARTH
REF_FRAME      = TEME
TIME_SYSTEM    = UTC
MEAN_ELEMENT_THEORY = SGP/SGP4

EPOCH          = 2026-02-23T20:16:50.020896
MEAN_MOTION    = 13.77492748
ECCENTRICITY   = .00236611
INCLINATION    = 82.9458
RA_OF_ASC_NODE = 180.3377
ARG_OF_PERICENTER = 75.4238
MEAN_ANOMALY   = 93.0343

EPHEMERIS_TYPE = 0
CLASSIFICATION_TYPE = U
NORAD_CAT_ID   = 21088
ELEMENT_SET_NO = 999
REV_AT_EPOCH   = 76216
BSTAR          = .44318209E-4
MEAN_MOTION_DOT = .6E-6
MEAN_MOTION_DDOT = 0

CCSDS_OMM_VERS = 2.0
CREATION_DATE  = 
ORIGINATOR     = 

OBJECT_NAME    = OKEAN-3
OBJECT_ID      = 1991-039A
CENTER_NAME    = EARTH
REF_FRAME      = TEME
TIME_SYSTEM    = UTC
MEAN_ELEMENT_THEORY = SGP/SGP4

EPOCH          = 2026-02-24T05:54:50.291424
MEAN_MOTION    = 15.04697752
ECCENTRICITY   = .0014988
INCLINATION    = 82.5203
RA_OF_ASC_NODE = 349.8640
ARG_OF_PERICENTER = 23.1970
MEAN_ANOMALY   = 336.9930

EPHEMERIS_TYPE = 0
CLASSIFICATION_TYPE = U
NORAD_CAT_ID   = 21397
ELEMENT_SET_NO = 999
REV_AT_EPOCH   = 86301
BSTAR          = .24632944E-3
MEAN_MOTION_DOT = .3501E-4
MEAN_MOTION_DDOT = 0

CCSDS_OMM_VERS = 2.0
CREATION_DATE  = 
ORIGINATOR     = 

OBJECT_NAME    = COSMOS 2151
OBJECT_ID      = 1991-042A
CENTER_NAME    = EARTH
REF_FRAME      = TEME
TIME_SYSTEM    = UTC
MEAN_ELEMENT_THEORY = SGP/SGP4

EPOCH          = 2026-02-24T05:00:50.028768
MEAN_MOTION    = 15.00047759
ECCENTRICITY   = .0014108
INCLINATION    = 82.4940
RA_OF_ASC_NODE = 96.6828
ARG_OF_PERICENTER = 103.9207
MEAN_ANOMALY   = 256.3587

EPHEMERIS_TYPE = 0
CLASSIFICATION_TYPE = U
NORAD_CAT_ID   = 21422
ELEMENT_SET_NO = 999
REV_AT_EPOCH   = 86117
BSTAR          = .12182729E-3
MEAN_MOTION_DOT = .1546E-4
MEAN_MOTION_DDOT = 0

